APRIZESAT 2             
1 28366U 04025A   26116.93482657  .00000170  00000+0  65647-4 0  9995
2 28366  98.0974 285.8284 0106483  45.3502 315.6306 14.38017611144276
SAUDICOMSAT 1           
1 28369U 04025D   26117.00567947  .00000337  00000+0  88453-4 0  9998
2 28369  98.5793 125.7543 0032201 178.1149 182.0175 14.55432818156688
SAUDICOMSAT 2           
1 28370U 04025E   26117.26699547  .00000387  00000+0  11061-3 0  9995
2 28370  98.6664 128.0701 0056406  54.5190 306.1248 14.49946996152727
APRIZESAT 1             
1 28372U 04025G   26117.29244160  .00000276  00000+0  80032-4 0  9999
2 28372  98.6324 126.6281 0043637 311.0961  48.6468 14.51750572154526
NANOSAT-1               
1 28493U 04049B   26117.26364251  .00001261  00000+0  17382-3 0  9992
2 28493  98.2196 252.7050 0005322  96.3770 263.8047 14.80053830147912
SAUDICOMSAT 7           
1 31119U 07012C   26117.19866481  .00000824  00000+0  15640-3 0  9997
2 31119  98.3746  90.2986 0055732 357.6864   2.4072 14.66050524 14967
SAUDICOMSAT 6           
1 31121U 07012E   26117.18940713  .00000594  00000+0  12289-3 0  9990
2 31121  98.4062  83.7735 0072869 124.9826 235.8245 14.62491995 12738
SAUDICOMSAT 5           
1 31124U 07012H   26117.17464637  .00000691  00000+0  12781-3 0  9993
2 31124  98.3458  91.0321 0046136 286.6918  72.9225 14.68095123 16111
SAUDICOMSAT 3           
1 31125U 07012J   26116.88301547  .00000707  00000+0  12376-3 0  9999
2 31125  98.3113  91.2898 0038364 212.6167 147.2669 14.70626103 17288
SAUDICOMSAT 4           
1 31127U 07012L   26117.18514333  .00000821  00000+0  16027-3 0  9998
2 31127  98.3951  88.7298 0064635  58.3671 302.3815 14.64446094 13825
APRIZESAT 4             
1 35684U 09041D   26117.20993274  .00000952  00000+0  11991-3 0  9992
2 35684  98.1423 191.5150 0044484 126.0433 234.4915 14.83800859903804
APRIZESAT 3             
1 35686U 09041F   26117.13686723  .00001504  00000+0  13501-3 0  9997
2 35686  98.1994 267.9408 0060942 235.0712 124.4773 14.96061726908745
S-NET D                 
1 43186U 18014G   26117.25627515  .00006001  00000+0  31402-3 0  9995
2 43186  97.5403  22.3741 0008010 182.2255 177.8943 15.16185783451043
S-NET B                 
1 43187U 18014H   26117.26673642  .00006331  00000+0  33131-3 0  9996
2 43187  97.5407  22.3698 0008781 178.5540 181.5720 15.16156755451041
S-NET A                 
1 43188U 18014J   26117.25539882  .00006001  00000+0  31396-3 0  9998
2 43188  97.5418  22.5578 0008630 179.1469 180.9780 15.16192489451046
S-NET C                 
1 43189U 18014K   26117.27033064  .00006484  00000+0  33922-3 0  9994
2 43189  97.5435  22.6393 0010253 173.6969 186.4395 15.16148292449593
SALSAT                  
1 46495U 20068K   26117.24379231  .00009696  00000+0  34616-3 0  9994
2 46495  97.8862 117.2385 0011569 117.3130 242.9288 15.29030388307571
