[{"OBJECT_NAME":"APRIZESAT 2","OBJECT_ID":"2004-025A","EPOCH":"2026-04-26T22:26:09.015648","MEAN_MOTION":14.38017611,"ECCENTRICITY":0.0106483,"INCLINATION":98.0974,"RA_OF_ASC_NODE":285.8284,"ARG_OF_PERICENTER":45.3502,"MEAN_ANOMALY":315.6306,"EPHEMERIS_TYPE":0,"CLASSIFICATION_TYPE":"U","NORAD_CAT_ID":28366,"ELEMENT_SET_NO":999,"REV_AT_EPOCH":14427,"BSTAR":6.5647e-5,"MEAN_MOTION_DOT":1.7e-6,"MEAN_MOTION_DDOT":0},{"OBJECT_NAME":"SAUDICOMSAT 1","OBJECT_ID":"2004-025D","EPOCH":"2026-04-27T00:08:10.706208","MEAN_MOTION":14.55432818,"ECCENTRICITY":0.00322015,"INCLINATION":98.5793,"RA_OF_ASC_NODE":125.7543,"ARG_OF_PERICENTER":178.1149,"MEAN_ANOMALY":182.0175,"EPHEMERIS_TYPE":0,"CLASSIFICATION_TYPE":"U","NORAD_CAT_ID":28369,"ELEMENT_SET_NO":999,"REV_AT_EPOCH":15668,"BSTAR":8.8452737e-5,"MEAN_MOTION_DOT":3.37e-6,"MEAN_MOTION_DDOT":0},{"OBJECT_NAME":"SAUDICOMSAT 2","OBJECT_ID":"2004-025E","EPOCH":"2026-04-27T06:24:28.408608","MEAN_MOTION":14.49946996,"ECCENTRICITY":0.00564063,"INCLINATION":98.6664,"RA_OF_ASC_NODE":128.0701,"ARG_OF_PERICENTER":54.519,"MEAN_ANOMALY":306.1248,"EPHEMERIS_TYPE":0,"CLASSIFICATION_TYPE":"U","NORAD_CAT_ID":28370,"ELEMENT_SET_NO":999,"REV_AT_EPOCH":15272,"BSTAR":0.00011060831,"MEAN_MOTION_DOT":3.87e-6,"MEAN_MOTION_DDOT":0},{"OBJECT_NAME":"APRIZESAT 1","OBJECT_ID":"2004-025G","EPOCH":"2026-04-27T07:01:06.954240","MEAN_MOTION":14.51750572,"ECCENTRICITY":0.00436375,"INCLINATION":98.6324,"RA_OF_ASC_NODE":126.6281,"ARG_OF_PERICENTER":311.0961,"MEAN_ANOMALY":48.6468,"EPHEMERIS_TYPE":0,"CLASSIFICATION_TYPE":"U","NORAD_CAT_ID":28372,"ELEMENT_SET_NO":999,"REV_AT_EPOCH":15452,"BSTAR":8.0032242e-5,"MEAN_MOTION_DOT":2.76e-6,"MEAN_MOTION_DDOT":0},{"OBJECT_NAME":"NANOSAT-1","OBJECT_ID":"2004-049B","EPOCH":"2026-04-27T06:19:38.712864","MEAN_MOTION":14.8005383,"ECCENTRICITY":0.00053222,"INCLINATION":98.2196,"RA_OF_ASC_NODE":252.705,"ARG_OF_PERICENTER":96.377,"MEAN_ANOMALY":263.8047,"EPHEMERIS_TYPE":0,"CLASSIFICATION_TYPE":"U","NORAD_CAT_ID":28493,"ELEMENT_SET_NO":999,"REV_AT_EPOCH":14791,"BSTAR":0.00017382429,"MEAN_MOTION_DOT":1.261e-5,"MEAN_MOTION_DDOT":0},{"OBJECT_NAME":"SAUDICOMSAT 7","OBJECT_ID":"2007-012C","EPOCH":"2026-04-27T04:46:04.639584","MEAN_MOTION":14.66050524,"ECCENTRICITY":0.00557326,"INCLINATION":98.3746,"RA_OF_ASC_NODE":90.2986,"ARG_OF_PERICENTER":357.6864,"MEAN_ANOMALY":2.4072,"EPHEMERIS_TYPE":0,"CLASSIFICATION_TYPE":"U","NORAD_CAT_ID":31119,"ELEMENT_SET_NO":999,"REV_AT_EPOCH":1496,"BSTAR":0.00015639528,"MEAN_MOTION_DOT":8.24e-6,"MEAN_MOTION_DDOT":0},{"OBJECT_NAME":"SAUDICOMSAT 6","OBJECT_ID":"2007-012E","EPOCH":"2026-04-27T04:32:44.776032","MEAN_MOTION":14.62491995,"ECCENTRICITY":0.00728692,"INCLINATION":98.4062,"RA_OF_ASC_NODE":83.7735,"ARG_OF_PERICENTER":124.9826,"MEAN_ANOMALY":235.8245,"EPHEMERIS_TYPE":0,"CLASSIFICATION_TYPE":"U","NORAD_CAT_ID":31121,"ELEMENT_SET_NO":999,"REV_AT_EPOCH":1273,"BSTAR":0.00012289338,"MEAN_MOTION_DOT":5.94e-6,"MEAN_MOTION_DDOT":0},{"OBJECT_NAME":"SAUDICOMSAT 5","OBJECT_ID":"2007-012H","EPOCH":"2026-04-27T04:11:29.446368","MEAN_MOTION":14.68095123,"ECCENTRICITY":0.00461361,"INCLINATION":98.3458,"RA_OF_ASC_NODE":91.0321,"ARG_OF_PERICENTER":286.6918,"MEAN_ANOMALY":72.9225,"EPHEMERIS_TYPE":0,"CLASSIFICATION_TYPE":"U","NORAD_CAT_ID":31124,"ELEMENT_SET_NO":999,"REV_AT_EPOCH":1611,"BSTAR":0.00012780975,"MEAN_MOTION_DOT":6.91e-6,"MEAN_MOTION_DDOT":0},{"OBJECT_NAME":"SAUDICOMSAT 3","OBJECT_ID":"2007-012J","EPOCH":"2026-04-26T21:11:32.536608","MEAN_MOTION":14.70626103,"ECCENTRICITY":0.00383644,"INCLINATION":98.3113,"RA_OF_ASC_NODE":91.2898,"ARG_OF_PERICENTER":212.6167,"MEAN_ANOMALY":147.2669,"EPHEMERIS_TYPE":0,"CLASSIFICATION_TYPE":"U","NORAD_CAT_ID":31125,"ELEMENT_SET_NO":999,"REV_AT_EPOCH":1728,"BSTAR":0.00012375761,"MEAN_MOTION_DOT":7.07e-6,"MEAN_MOTION_DDOT":0},{"OBJECT_NAME":"SAUDICOMSAT 4","OBJECT_ID":"2007-012L","EPOCH":"2026-04-27T04:26:36.383712","MEAN_MOTION":14.64446094,"ECCENTRICITY":0.00646355,"INCLINATION":98.3951,"RA_OF_ASC_NODE":88.7298,"ARG_OF_PERICENTER":58.3671,"MEAN_ANOMALY":302.3815,"EPHEMERIS_TYPE":0,"CLASSIFICATION_TYPE":"U","NORAD_CAT_ID":31127,"ELEMENT_SET_NO":999,"REV_AT_EPOCH":1382,"BSTAR":0.00016026735,"MEAN_MOTION_DOT":8.21e-6,"MEAN_MOTION_DDOT":0},{"OBJECT_NAME":"APRIZESAT 4","OBJECT_ID":"2009-041D","EPOCH":"2026-04-27T05:02:18.188736","MEAN_MOTION":14.83800859,"ECCENTRICITY":0.00444848,"INCLINATION":98.1423,"RA_OF_ASC_NODE":191.515,"ARG_OF_PERICENTER":126.0433,"MEAN_ANOMALY":234.4915,"EPHEMERIS_TYPE":0,"CLASSIFICATION_TYPE":"U","NORAD_CAT_ID":35684,"ELEMENT_SET_NO":999,"REV_AT_EPOCH":90380,"BSTAR":0.00011990632,"MEAN_MOTION_DOT":9.52e-6,"MEAN_MOTION_DDOT":0},{"OBJECT_NAME":"APRIZESAT 3","OBJECT_ID":"2009-041F","EPOCH":"2026-04-27T03:17:05.328672","MEAN_MOTION":14.96061726,"ECCENTRICITY":0.00609427,"INCLINATION":98.1994,"RA_OF_ASC_NODE":267.9408,"ARG_OF_PERICENTER":235.0712,"MEAN_ANOMALY":124.4773,"EPHEMERIS_TYPE":0,"CLASSIFICATION_TYPE":"U","NORAD_CAT_ID":35686,"ELEMENT_SET_NO":999,"REV_AT_EPOCH":90874,"BSTAR":0.00013500801,"MEAN_MOTION_DOT":1.504e-5,"MEAN_MOTION_DDOT":0},{"OBJECT_NAME":"S-NET D","OBJECT_ID":"2018-014G","EPOCH":"2026-04-27T06:09:02.172960","MEAN_MOTION":15.16185783,"ECCENTRICITY":0.00080106,"INCLINATION":97.5403,"RA_OF_ASC_NODE":22.3741,"ARG_OF_PERICENTER":182.2255,"MEAN_ANOMALY":177.8943,"EPHEMERIS_TYPE":0,"CLASSIFICATION_TYPE":"U","NORAD_CAT_ID":43186,"ELEMENT_SET_NO":999,"REV_AT_EPOCH":45104,"BSTAR":0.00031402108,"MEAN_MOTION_DOT":6.001e-5,"MEAN_MOTION_DDOT":0},{"OBJECT_NAME":"S-NET B","OBJECT_ID":"2018-014H","EPOCH":"2026-04-27T06:24:06.026688","MEAN_MOTION":15.16156755,"ECCENTRICITY":0.00087814,"INCLINATION":97.5407,"RA_OF_ASC_NODE":22.3698,"ARG_OF_PERICENTER":178.554,"MEAN_ANOMALY":181.572,"EPHEMERIS_TYPE":0,"CLASSIFICATION_TYPE":"U","NORAD_CAT_ID":43187,"ELEMENT_SET_NO":999,"REV_AT_EPOCH":45104,"BSTAR":0.00033131101,"MEAN_MOTION_DOT":6.331e-5,"MEAN_MOTION_DDOT":0},{"OBJECT_NAME":"S-NET A","OBJECT_ID":"2018-014J","EPOCH":"2026-04-27T06:07:46.458048","MEAN_MOTION":15.16192489,"ECCENTRICITY":0.00086302,"INCLINATION":97.5418,"RA_OF_ASC_NODE":22.5578,"ARG_OF_PERICENTER":179.1469,"MEAN_ANOMALY":180.978,"EPHEMERIS_TYPE":0,"CLASSIFICATION_TYPE":"U","NORAD_CAT_ID":43188,"ELEMENT_SET_NO":999,"REV_AT_EPOCH":45104,"BSTAR":0.0003139615,"MEAN_MOTION_DOT":6.001e-5,"MEAN_MOTION_DDOT":0},{"OBJECT_NAME":"S-NET C","OBJECT_ID":"2018-014K","EPOCH":"2026-04-27T06:29:16.567296","MEAN_MOTION":15.16148292,"ECCENTRICITY":0.00102534,"INCLINATION":97.5435,"RA_OF_ASC_NODE":22.6393,"ARG_OF_PERICENTER":173.6969,"MEAN_ANOMALY":186.4395,"EPHEMERIS_TYPE":0,"CLASSIFICATION_TYPE":"U","NORAD_CAT_ID":43189,"ELEMENT_SET_NO":999,"REV_AT_EPOCH":44959,"BSTAR":0.00033922078,"MEAN_MOTION_DOT":6.484e-5,"MEAN_MOTION_DDOT":0},{"OBJECT_NAME":"SALSAT","OBJECT_ID":"2020-068K","EPOCH":"2026-04-27T05:51:03.655584","MEAN_MOTION":15.29030388,"ECCENTRICITY":0.00115696,"INCLINATION":97.8862,"RA_OF_ASC_NODE":117.2385,"ARG_OF_PERICENTER":117.313,"MEAN_ANOMALY":242.9288,"EPHEMERIS_TYPE":0,"CLASSIFICATION_TYPE":"U","NORAD_CAT_ID":46495,"ELEMENT_SET_NO":999,"REV_AT_EPOCH":30757,"BSTAR":0.00034615871,"MEAN_MOTION_DOT":9.696e-5,"MEAN_MOTION_DDOT":0}]
